{"type": "FeatureCollection", "features": [ {"type": "Feature", "properties": {"norad_id": 66369, "name": "STARLINK-35795", "group": "last-30-days", "lat": 45.24950804347474, "lon": 74.90356531388765, "alt_km": 333.890604607569, "timestamp": "2025-12-06T20:37:54.811366+00:00", "meta": {"OBJECT_NAME": "STARLINK-35795", "OBJECT_ID": "2025-254X", "EPOCH": "2025-12-04T02:39:36.815328", "MEAN_MOTION": 15.74349696, "ECCENTRICITY": 0.00030446, "INCLINATION": 53.1567, "RA_OF_ASC_NODE": 317.7168, "ARG_OF_PERICENTER": 147.1731, "MEAN_ANOMALY": 212.9479, "EPHEMERIS_TYPE": 0, "CLASSIFICATION_TYPE": "U", "NORAD_CAT_ID": 66369, "ELEMENT_SET_NO": 999, "REV_AT_EPOCH": 432, "BSTAR": 0.0021458163, "MEAN_MOTION_DOT": 0.00328479, "MEAN_MOTION_DDOT": 0}, "tle": {"line1": "1 66369U 25254X   25338.11084277  .00328479  00000+0  21458-2 0  9993", "line2": "2 66369  53.1567 317.7168 0003044 147.1731 212.9479 15.74349696  4324"}}, "geometry": {"type": "Point", "coordinates": [74.90356531388765, 45.24950804347474]}}, {"type": "Feature", "properties": {"norad_id": 66370, "name": "STARLINK-35824", "group": "last-30-days", "lat": 46.056038449626996, "lon": 72.98149076442569, "alt_km": 335.5662196000949, "timestamp": "2025-12-06T20:37:54.811379+00:00", "meta": {"OBJECT_NAME": "STARLINK-35824", "OBJECT_ID": "2025-254Y", "EPOCH": "2025-12-05T22:49:39.151776", "MEAN_MOTION": 15.75006861, "ECCENTRICITY": 0.00012624, "INCLINATION": 53.1578, "RA_OF_ASC_NODE": 308.5735, "ARG_OF_PERICENTER": 61.4125, "MEAN_ANOMALY": 298.7022, "EPHEMERIS_TYPE": 0, "CLASSIFICATION_TYPE": "U", "NORAD_CAT_ID": 66370, "ELEMENT_SET_NO": 999, "REV_AT_EPOCH": 461, "BSTAR": 0.0030357568, "MEAN_MOTION_DOT": 0.00487633, "MEAN_MOTION_DDOT": 0}, "tle": {"line1": "1 66370U 25254Y   25339.95114759  .00487633  00000+0  30358-2 0  9994", "line2": "2 66370  53.1578 308.5735 0001262  61.4125 298.7022 15.75006861  4614"}}, "geometry": {"type": "Point", "coordinates": [72.98149076442569, 46.056038449626996]}}, {"type": "Feature", "properties": {"norad_id": 66371, "name": "STARLINK-35804", "group": "last-30-days", "lat": 46.41842187528996, "lon": 72.07355206606029, "alt_km": 339.9840502931902, "timestamp": "2025-12-06T20:37:54.811391+00:00", "meta": {"OBJECT_NAME": "STARLINK-35804", "OBJECT_ID": "2025-254Z", "EPOCH": "2025-12-06T07:57:30.304800", "MEAN_MOTION": 15.74358918, "ECCENTRICITY": 0.00012584, "INCLINATION": 53.1587, "RA_OF_ASC_NODE": 306.6805, "ARG_OF_PERICENTER": 307.0115, "MEAN_ANOMALY": 53.0789, "EPHEMERIS_TYPE": 0, "CLASSIFICATION_TYPE": "U", "NORAD_CAT_ID": 66371, "ELEMENT_SET_NO": 999, "REV_AT_EPOCH": 467, "BSTAR": 0.0024294204, "MEAN_MOTION_DOT": 0.00374164, "MEAN_MOTION_DDOT": 0}, "tle": {"line1": "1 66371U 25254Z   25340.33160075  .00374164  00000+0  24294-2 0  9997", "line2": "2 66371  53.1587 306.6805 0001258 307.0115  53.0789 15.74358918  4675"}}, "geometry": {"type": "Point", "coordinates": [72.07355206606029, 46.41842187528996]}}, {"type": "Feature", "properties": {"norad_id": 66372, "name": "STARLINK-35821", "group": "last-30-days", "lat": 41.014142071987706, "lon": 83.3340950167239, "alt_km": 333.74555646199315, "timestamp": "2025-12-06T20:37:54.811403+00:00", "meta": {"OBJECT_NAME": "STARLINK-35821", "OBJECT_ID": "2025-254AA", "EPOCH": "2025-12-04T10:15:15.064416", "MEAN_MOTION": 15.7441561, "ECCENTRICITY": 0.0001567, "INCLINATION": 53.1569, "RA_OF_ASC_NODE": 316.1358, "ARG_OF_PERICENTER": 64.6576, "MEAN_ANOMALY": 295.4606, "EPHEMERIS_TYPE": 0, "CLASSIFICATION_TYPE": "U", "NORAD_CAT_ID": 66372, "ELEMENT_SET_NO": 999, "REV_AT_EPOCH": 437, "BSTAR": 0.0030875, "MEAN_MOTION_DOT": 0.00483155, "MEAN_MOTION_DDOT": 0}, "tle": {"line1": "1 66372U 25254AA  25338.42725769  .00483155  00000+0  30875-2 0  9995", "line2": "2 66372  53.1569 316.1358 0001567  64.6576 295.4606 15.74415610  4375"}}, "geometry": {"type": "Point", "coordinates": [83.3340950167239, 41.014142071987706]}}, {"type": "Feature", "properties": {"norad_id": 66373, "name": "STARLINK-35809", "group": "last-30-days", "lat": 45.42340216869683, "lon": 74.50515060795671, "alt_km": 340.18726917023196, "timestamp": "2025-12-06T20:37:54.811414+00:00", "meta": {"OBJECT_NAME": "STARLINK-35809", "OBJECT_ID": "2025-254AB", "EPOCH": "2025-12-06T07:57:01.145664", "MEAN_MOTION": 15.74368048, "ECCENTRICITY": 0.00015195, "INCLINATION": 53.1577, "RA_OF_ASC_NODE": 306.6786, "ARG_OF_PERICENTER": 304.8098, "MEAN_ANOMALY": 55.2779, "EPHEMERIS_TYPE": 0, "CLASSIFICATION_TYPE": "U", "NORAD_CAT_ID": 66373, "ELEMENT_SET_NO": 999, "REV_AT_EPOCH": 467, "BSTAR": 0.002647882, "MEAN_MOTION_DOT": 0.00409778, "MEAN_MOTION_DDOT": 0}, "tle": {"line1": "1 66373U 25254AB  25340.33126326  .00409778  00000+0  26479-2 0  9997", "line2": "2 66373  53.1577 306.6786 0001519 304.8098  55.2779 15.74368048  4677"}}, "geometry": {"type": "Point", "coordinates": [74.50515060795671, 45.42340216869683]}}, {"type": "Feature", "properties": {"norad_id": 66374, "name": "STARLINK-35831", "group": "last-30-days", "lat": 43.30449056160093, "lon": 79.07763442493287, "alt_km": 336.35783609797727, "timestamp": "2025-12-06T20:37:54.811425+00:00", "meta": {"OBJECT_NAME": "STARLINK-35831", "OBJECT_ID": "2025-254AC", "EPOCH": "2025-12-05T15:10:54.606144", "MEAN_MOTION": 15.7432573, "ECCENTRICITY": 0.00041826, "INCLINATION": 53.1572, "RA_OF_ASC_NODE": 310.1414, "ARG_OF_PERICENTER": 66.4364, "MEAN_ANOMALY": 293.7095, "EPHEMERIS_TYPE": 0, "CLASSIFICATION_TYPE": "U", "NORAD_CAT_ID": 66374, "ELEMENT_SET_NO": 999, "REV_AT_EPOCH": 456, "BSTAR": 0.0026107257, "MEAN_MOTION_DOT": 0.00402992, "MEAN_MOTION_DDOT": 0}, "tle": {"line1": "1 66374U 25254AC  25339.63257646  .00402992  00000+0  26107-2 0  9998", "line2": "2 66374  53.1572 310.1414 0004182  66.4364 293.7095 15.74325730  4566"}}, "geometry": {"type": "Point", "coordinates": [79.07763442493287, 43.30449056160093]}}, {"type": "Feature", "properties": {"norad_id": 66375, "name": "STARLINK-35826", "group": "last-30-days", "lat": 43.192270592230024, "lon": 79.30124252161967, "alt_km": 338.0146665832308, "timestamp": "2025-12-06T20:37:54.811439+00:00", "meta": {"OBJECT_NAME": "STARLINK-35826", "OBJECT_ID": "2025-254AD", "EPOCH": "2025-12-06T04:53:12.723072", "MEAN_MOTION": 15.74307496, "ECCENTRICITY": 0.00018055, "INCLINATION": 53.1571, "RA_OF_ASC_NODE": 307.3032, "ARG_OF_PERICENTER": 100.1258, "MEAN_ANOMALY": 259.9966, "EPHEMERIS_TYPE": 0, "CLASSIFICATION_TYPE": "U", "NORAD_CAT_ID": 66375, "ELEMENT_SET_NO": 999, "REV_AT_EPOCH": 465, "BSTAR": 0.0031326618, "MEAN_MOTION_DOT": 0.00488243, "MEAN_MOTION_DDOT": 0}, "tle": {"line1": "1 66375U 25254AD  25340.20361948  .00488243  00000+0  31327-2 0  9998", "line2": "2 66375  53.1571 307.3032 0001805 100.1258 259.9966 15.74307496  4657"}}, "geometry": {"type": "Point", "coordinates": [79.30124252161967, 43.192270592230024]}}, {"type": "Feature", "properties": {"norad_id": 66376, "name": "SHIYAN-32 01", "group": "last-30-days", "lat": 8.585693079147227, "lon": -147.42503406136055, "alt_km": 429.49924364752405, "timestamp": "2025-12-06T20:37:54.811450+00:00", "meta": {"OBJECT_NAME": "SHIYAN-32 01", "OBJECT_ID": "2025-255A", "EPOCH": "2025-12-06T17:28:31.490400", "MEAN_MOTION": 15.42490212, "ECCENTRICITY": 0.001346, "INCLINATION": 52.9945, "RA_OF_ASC_NODE": 206.6612, "ARG_OF_PERICENTER": 23.4542, "MEAN_ANOMALY": 336.7073, "EPHEMERIS_TYPE": 0, "CLASSIFICATION_TYPE": "U", "NORAD_CAT_ID": 66376, "ELEMENT_SET_NO": 999, "REV_AT_EPOCH": 442, "BSTAR": 0.00064636, "MEAN_MOTION_DOT": 0.00028217, "MEAN_MOTION_DDOT": 0}, "tle": {"line1": "1 66376U 25255A   25340.72814225  .00028217  00000+0  64636-3 0  9999", "line2": "2 66376  52.9945 206.6612 0013460  23.4542 336.7073 15.42490212  4420"}}, "geometry": {"type": "Point", "coordinates": [-147.42503406136055, 8.585693079147227]}}, {"type": "Feature", "properties": {"norad_id": 66377, "name": "CZ-11 DEB", "group": "last-30-days", "lat": 52.79192806955763, "lon": -57.536518518301655, "alt_km": 424.5721482615054, "timestamp": "2025-12-06T20:37:54.811461+00:00", "meta": {"OBJECT_NAME": "CZ-11 DEB", "OBJECT_ID": "2025-255B", "EPOCH": "2025-12-06T14:00:48.142656", "MEAN_MOTION": 15.43919275, "ECCENTRICITY": 0.0013827, "INCLINATION": 52.9944, "RA_OF_ASC_NODE": 207.1849, "ARG_OF_PERICENTER": 20.1676, "MEAN_ANOMALY": 339.9872, "EPHEMERIS_TYPE": 0, "CLASSIFICATION_TYPE": "U", "NORAD_CAT_ID": 66377, "ELEMENT_SET_NO": 999, "REV_AT_EPOCH": 426, "BSTAR": 0.0012842671, "MEAN_MOTION_DOT": 0.00059535, "MEAN_MOTION_DDOT": 0}, "tle": {"line1": "1 66377U 25255B   25340.58389054  .00059535  00000+0  12843-2 0  9990", "line2": "2 66377  52.9944 207.1849 0013827  20.1676 339.9872 15.43919275  4267"}}, "geometry": {"type": "Point", "coordinates": [-57.536518518301655, 52.79192806955763]}}, {"type": "Feature", "properties": {"norad_id": 66378, "name": "SHIYAN-32 02", "group": "last-30-days", "lat": 37.73230810040288, "lon": -9.909694672656185, "alt_km": 430.86676602613625, "timestamp": "2025-12-06T20:37:54.811472+00:00", "meta": {"OBJECT_NAME": "SHIYAN-32 02", "OBJECT_ID": "2025-255C", "EPOCH": "2025-12-06T16:58:00.818688", "MEAN_MOTION": 15.44584755, "ECCENTRICITY": 0.0011994, "INCLINATION": 52.9924, "RA_OF_ASC_NODE": 206.5273, "ARG_OF_PERICENTER": 16.0718, "MEAN_ANOMALY": 344.0665, "EPHEMERIS_TYPE": 0, "CLASSIFICATION_TYPE": "U", "NORAD_CAT_ID": 66378, "ELEMENT_SET_NO": 999, "REV_AT_EPOCH": 428, "BSTAR": 0.0015018, "MEAN_MOTION_DOT": 0.00071338, "MEAN_MOTION_DDOT": 0}, "tle": {"line1": "1 66378U 25255C   25340.70695392  .00071338  00000+0  15018-2 0  9992", "line2": "2 66378  52.9924 206.5273 0011994  16.0718 344.0665 15.44584755  4285"}}, "geometry": {"type": "Point", "coordinates": [-9.909694672656185, 37.73230810040288]}}]}